MEAN_MOTION;ECCENTRICITY;INCLINATION;RA_OF_ASC_NODE;ARG_OF_PERICENTER;MEAN_ANOMALY;BSTAR;MEAN_MOTION_DOT;MEAN_MOTION_DDOT;TYPE
14.34219761;0.0001627;86.4015;349.5568;89.033;271.1052;1.6618E-5;6.6E-7;0;Iridium
14.34219831;0.000163;86.4014;349.3821;89.309;270.8292;1.6715E-5;6.7E-7;0;Iridium
14.3421985;0.0001634;86.4014;349.1491;89.7504;270.3879;1.4827E-5;6.1E-7;0;Iridium
14.34219884;0.0001636;86.4014;349.0035;90.0256;270.1127;1.4295E-5;6.0E-7;0;Iridium
14.342199;0.000164;86.4014;348.7704;90.5096;269.6288;1.2469E-5;5.5E-7;0;Iridium
14.34219957;0.000164;86.4014;348.5956;91.0975;269.0409;1.4429E-5;6.0E-7;0;Iridium
14.34220026;0.0001641;86.4013;348.3917;91.5116;268.6268;1.6297E-5;6.5E-7;0;Iridium
14.34220234;0.0001649;86.4012;348.0713;92.5848;267.5537;2.3677E-5;8.6E-7;0;Iridium
14.34220234;0.0001649;86.4012;348.0713;92.5848;267.5537;2.3677E-5;8.6E-7;0;Iridium
14.34220234;0.0001649;86.4012;348.0713;92.5848;267.5537;2.3677E-5;8.6E-7;0;Iridium
14.34220414;0.0001674;86.4012;347.5177;94.262;265.8767;2.5819E-5;9.2E-7;0;Iridium
14.34220387;0.0001687;86.4012;347.4886;94.6156;265.5233;2.5009E-5;9.0E-7;0;Iridium
14.34220463;0.0001698;86.4012;347.2264;95.0812;265.0577;2.6666E-5;9.4E-7;0;Iridium
14.34220462;0.0001708;86.4011;347.1099;95.4005;264.7386;2.4262E-5;8.8E-7;0;Iridium
14.3422054;0.0001713;86.4011;346.906;95.7566;264.3825;2.6219E-5;9.3E-7;0;Iridium
14.34220577;0.0001722;86.401;346.6729;95.8775;264.2617;2.4659E-5;8.9E-7;0;Iridium
14.34215957;0.0001785;86.401;346.2649;92.4057;267.7343;2.3845E-5;8.7E-7;0;Iridium
14.34215261;0.0001783;86.4008;345.9737;95.6502;264.4897;1.0928E-5;5.0E-7;0;Iridium
14.34215269;0.0001783;86.4008;345.9445;95.705;264.4349;1.0994E-5;5.1E-7;0;Iridium
14.3421528;0.0001782;86.4008;345.8571;95.9143;264.2256;5.8022E-6;3.6E-7;0;Iridium
14.34215356;0.00018;86.4007;345.5658;96.4499;263.6902;5.055E-6;3.4E-7;0;Iridium
14.34215561;0.000181;86.4007;345.391;96.8855;263.2547;2.398E-5;8.7E-7;0;Iridium
14.34215587;0.0001822;86.4006;345.1288;96.8187;263.3217;1.6928E-5;6.7E-7;0;Iridium
14.34215644;0.000183;86.4005;344.9539;97.1655;262.9749;1.7744E-5;6.9E-7;0;Iridium
14.34215662;0.0001842;86.4004;344.7208;97.437;262.7035;1.4142E-5;5.9E-7;0;Iridium
14.34215712;0.0001841;86.4004;344.6917;97.669;262.4715;1.8753E-5;7.2E-7;0;Iridium
14.34215736;0.0001849;86.4004;344.546;97.8828;262.2577;1.748E-5;6.9E-7;0;Iridium
14.34215716;0.0001865;86.4003;344.2838;97.9658;262.1749;1.0696E-5;5.0E-7;0;Iridium
14.34215728;0.0001866;86.4003;344.2547;98.0083;262.1325;1.0864E-5;5.0E-7;0;Iridium
14.34215779;0.0001877;86.4003;344.1381;98.1769;261.964;1.2512E-5;5.5E-7;0;Iridium
14.34215822;0.000189;86.4002;343.8758;98.2863;261.8547;1.2374E-5;5.4E-7;0;Iridium
14.34215885;0.0001899;86.4002;343.701;98.5274;261.6137;1.4756E-5;6.1E-7;0;Iridium
14.34215886;0.00019;86.4002;343.6719;98.5465;261.5946;1.4423E-5;6.0E-7;0;Iridium
14.34215974;0.0001918;86.4001;343.3513;98.8887;261.2526;1.5408E-5;6.3E-7;0;Iridium
14.34216069;0.0001928;86.4001;343.2057;99.1348;261.0066;2.0605E-5;7.7E-7;0;Iridium
14.34216058;0.000194;86.4;343.0308;99.0736;261.068;1.7687E-5;6.9E-7;0;Iridium
14.3421611;0.0001953;86.4;342.8851;99.4865;260.6551;1.937E-5;7.4E-7;0;Iridium
14.34216198;0.000197;86.3999;342.6228;99.4883;260.6535;2.1191E-5;7.9E-7;0;Iridium
14.34216247;0.000198;86.3999;342.4771;99.7326;260.4093;2.191E-5;8.1E-7;0;Iridium
14.34216289;0.0002002;86.3998;342.2148;99.8771;260.2651;2.1513E-5;8.0E-7;0;Iridium
14.34216302;0.0002016;86.3997;342.04;100.0086;260.1338;1.9773E-5;7.5E-7;0;Iridium
14.34216328;0.0002044;86.3996;341.7777;99.9099;260.2328;1.9052E-5;7.3E-7;0;Iridium
14.34216358;0.0002055;86.3996;341.6319;99.929;260.2137;1.8473E-5;7.2E-7;0;Iridium
14.34216488;0.0002073;86.3994;341.3405;99.8569;260.286;2.3066E-5;8.4E-7;0;Iridium
14.34216562;0.0002085;86.3994;341.1947;99.9904;260.1527;2.5925E-5;9.2E-7;0;Iridium
14.34216679;0.0002099;86.3993;340.9616;99.9346;260.2087;2.9052E-5;1.01E-6;0;Iridium
14.34216702;0.0002099;86.3992;340.9324;99.9195;260.2238;2.9832E-5;1.03E-6;0;Iridium
14.34216775;0.000211;86.3992;340.7867;100.0606;260.0828;3.1495E-5;1.08E-6;0;Iridium
14.34216844;0.0002129;86.3991;340.5244;100.0418;260.1018;2.876E-5;1.0E-6;0;Iridium
14.34216857;0.000213;86.399;340.4952;100.0476;260.0961;2.8525E-5;1.0E-6;0;Iridium
14.34216903;0.0002141;86.399;340.3786;100.2029;259.9408;3.0118E-5;1.04E-6;0;Iridium
14.34216935;0.0002143;86.399;340.3203;100.1507;259.9931;3.0652E-5;1.06E-6;0;Iridium
14.34217007;0.0002162;86.3988;340.0288;100.0545;260.0895;2.6061E-5;9.3E-7;0;Iridium
14.34217041;0.000217;86.3988;339.8539;100.0471;260.097;2.4563E-5;8.9E-7;0;Iridium
14.34217061;0.0002172;86.3987;339.8248;100.0524;260.0917;2.4886E-5;8.9E-7;0;Iridium
14.34217098;0.0002186;86.3986;339.6207;99.9536;260.1907;2.1863E-5;8.1E-7;0;Iridium
14.34217162;0.0002194;86.3985;339.4167;99.8916;260.2527;2.127E-5;7.9E-7;0;Iridium
14.34217213;0.000221;86.3984;339.1835;100.0101;260.1345;1.9074E-5;7.3E-7;0;Iridium
14.34217275;0.0002217;86.3984;339.0085;99.9747;260.1699;1.9404E-5;7.4E-7;0;Iridium
14.34217421;0.0002242;86.3982;338.6004;99.7027;260.4422;1.9247E-5;7.4E-7;0;Iridium
14.34217496;0.0002262;86.3981;338.3672;99.6259;260.5192;1.9342E-5;7.4E-7;0;Iridium
14.34217578;0.0002272;86.398;338.163;99.5607;260.5845;2.0475E-5;7.7E-7;0;Iridium
14.34217601;0.0002283;86.398;337.9881;99.2706;260.8748;1.9272E-5;7.4E-7;0;Iridium
14.34217599;0.0002286;86.398;337.9589;99.2444;260.9011;1.8546E-5;7.2E-7;0;Iridium
14.34217791;0.0002322;86.3978;337.5507;99.3538;260.7921;2.2203E-5;8.2E-7;0;Iridium
14.34217777;0.000233;86.3978;337.5216;99.4505;260.6954;2.1628E-5;8.0E-7;0;Iridium
14.34217896;0.0002386;86.3977;337.1132;100.3015;259.845;2.2432E-5;8.3E-7;0;Iridium
14.34218007;0.0002412;86.3976;336.7632;100.2043;259.9425;2.4552E-5;8.9E-7;0;Iridium
14.34218006;0.0002418;86.3976;336.7049;100.0366;260.1103;2.3189E-5;8.5E-7;0;Iridium
14.34218034;0.0002429;86.3975;336.4716;99.8619;260.2851;2.2596E-5;8.3E-7;0;Iridium
14.34218081;0.0002439;86.3974;336.2966;99.5275;260.6197;2.2468E-5;8.3E-7;0;Iridium
14.34218221;0.0002466;86.3972;335.8591;99.1916;260.9559;2.3838E-5;8.7E-7;0;Iridium
14.34218366;0.0002475;86.397;335.4508;98.2074;261.9402;2.5091E-5;9.0E-7;0;Iridium
14.34218513;0.0002488;86.3969;335.0717;97.6579;262.49;2.5945E-5;9.2E-7;0;Iridium
14.34218524;0.000249;86.3969;335.0425;97.6046;262.5433;2.5778E-5;9.2E-7;0;Iridium
14.34218647;0.0002507;86.3967;334.6342;97.261;262.8871;2.4147E-5;8.7E-7;0;Iridium
14.3421866;0.0002506;86.3967;334.605;97.1474;263.0007;2.4298E-5;8.8E-7;0;Iridium
14.34218756;0.0002524;86.3965;334.2258;96.6055;263.5428;2.1276E-5;7.9E-7;0;Iridium
14.34218753;0.0002527;86.3965;334.1966;96.633;263.5153;2.066E-5;7.8E-7;0;Iridium
14.34218863;0.000254;86.3963;333.7882;96.0198;264.1287;1.8432E-5;7.1E-7;0;Iridium
14.34218945;0.0002554;86.3961;333.409;95.7367;264.412;1.6437E-5;6.6E-7;0;Iridium
14.34218945;0.0002554;86.3961;333.409;95.7367;264.412;1.6437E-5;6.6E-7;0;Iridium
14.34218948;0.0002555;86.3961;333.3798;95.6583;264.4904;1.576E-5;6.4E-7;0;Iridium
14.3421902;0.0002561;86.3961;333.1755;95.4603;264.6885;1.6398E-5;6.6E-7;0;Iridium
14.34219162;0.0002566;86.3959;332.7671;94.7099;265.439;1.7649E-5;6.9E-7;0;Iridium
14.3421922;0.0002575;86.3959;332.592;94.5001;265.6489;1.8258E-5;7.1E-7;0;Iridium
14.34219225;0.0002583;86.3959;332.5337;94.4714;265.6777;1.749E-5;6.9E-7;0;Iridium
14.342193;0.0002607;86.3958;332.0962;93.9839;266.1654;1.7198E-5;6.8E-7;0;Iridium
14.34219367;0.0002614;86.3957;331.7167;93.2398;266.9097;1.6965E-5;6.7E-7;0;Iridium
14.34219362;0.0002616;86.3957;331.6876;93.214;266.9355;1.6726E-5;6.7E-7;0;Iridium
14.34219466;0.0002629;86.3955;331.3082;92.6342;267.5155;1.8686E-5;7.2E-7;0;Iridium
14.34219477;0.0002631;86.3955;331.1623;92.4947;267.655;1.9227E-5;7.4E-7;0;Iridium
14.3421957;0.0002637;86.3954;330.8705;91.9073;268.2425;1.9916E-5;7.6E-7;0;Iridium
14.34219653;0.0002638;86.3953;330.4912;91.1956;268.9542;2.0922E-5;7.8E-7;0;Iridium
14.34219659;0.0002639;86.3953;330.462;91.1725;268.9773;2.0634E-5;7.8E-7;0;Iridium
14.34219838;0.0002649;86.3951;330.0825;90.8743;269.2757;2.4863E-5;8.9E-7;0;Iridium
14.342199;0.0002649;86.3951;329.9074;90.6709;269.479;2.6345E-5;9.4E-7;0;Iridium
14.34219997;0.0002655;86.395;329.6447;90.2914;269.8586;2.5834E-5;9.2E-7;0;Iridium
14.34220011;0.0002657;86.395;329.4988;90.1401;270.0099;2.5365E-5;9.1E-7;0;Iridium
14.34220065;0.0002664;86.3949;329.2362;89.8224;270.3277;2.266E-5;8.3E-7;0;Iridium
14.34220059;0.0002666;86.3949;329.207;89.7985;270.3516;2.1727E-5;8.1E-7;0;Iridium
14.34220158;0.0002673;86.3948;328.7984;89.4581;270.6921;1.9632E-5;7.5E-7;0;Iridium
14.34220158;0.0002673;86.3948;328.7984;89.4581;270.6921;1.9632E-5;7.5E-7;0;Iridium
14.34220174;0.0002671;86.3948;328.6525;89.2271;270.9231;1.8983E-5;7.3E-7;0;Iridium
14.34218443;0.0002752;86.3946;328.3604;89.8761;270.275;1.4996E-5;6.2E-7;0;Iridium
14.34218339;0.0002756;86.3949;328.244;90.0272;270.124;1.5277E-5;6.3E-7;0;Iridium
14.34217766;0.0002686;86.3946;327.981;88.2845;271.8659;6.3992E-6;3.8E-7;0;Iridium
14.34217712;0.0002689;86.3946;327.9519;88.4147;271.7357;-1.7619E-6;1.5E-7;0;Iridium
14.34217689;0.0002681;86.3944;327.5724;87.8122;272.3381;-2.8274E-6;1.2E-7;0;Iridium
14.34217679;0.0002677;86.3944;327.3973;87.5568;272.5934;-2.9977E-6;1.1E-7;0;Iridium
14.34217552;0.0002604;86.3944;327.1346;84.0665;276.0828;-8.5303E-6;-4.0E-8;0;Iridium
14.34217536;0.0002599;86.3942;326.6968;83.4947;276.6545;-6.8356E-6;1.0E-8;0;Iridium
14.34217557;0.0002592;86.3941;326.3174;82.834;277.3151;-4.4931E-6;7.0E-8;0;Iridium
14.34217549;0.000259;86.3941;326.1422;82.7132;277.4358;-4.2816E-6;8.0E-8;0;Iridium
14.3421751;0.0002585;86.394;325.8795;82.2279;277.921;-5.5221E-6;4.0E-8;0;Iridium
14.34217518;0.0002582;86.3939;325.7335;82.0492;278.0996;-4.4726E-6;7.0E-8;0;Iridium
14.34217541;0.000258;86.3939;325.4708;81.7119;278.4369;-3.2349E-6;1.1E-7;0;Iridium
14.34217564;0.0002577;86.3938;325.3248;81.5995;278.5493;-1.6338E-6;1.5E-7;0;Iridium
14.34217591;0.0002571;86.3938;325.0328;81.1781;278.9705;-1.3617E-7;1.9E-7;0;Iridium
